OBJECT_NAME,OBJECT_ID,EPOCH,MEAN_MOTION,ECCENTRICITY,INCLINATION,RA_OF_ASC_NODE,ARG_OF_PERICENTER,MEAN_ANOMALY,EPHEMERIS_TYPE,CLASSIFICATION_TYPE,NORAD_CAT_ID,ELEMENT_SET_NO,REV_AT_EPOCH,BSTAR,MEAN_MOTION_DOT,MEAN_MOTION_DDOT
BEIDOU-3 M14,2018-072B,2024-01-20T09:47:20.345568,1.86231075,.0004514,55.8768,91.8400,305.5526,54.4438,0,U,43623,999,3628,0,-.71E-6,0
BEIDOU-3 M16,2018-078A,2024-01-20T13:42:37.211328,1.86232163,.0007872,54.8211,330.5698,4.4555,355.5448,0,U,43647,999,3579,0,-.112E-5,0
BEIDOU-3 M15,2018-078B,2024-01-18T00:22:30.969408,1.86231829,.0004741,54.8187,330.6613,5.7358,354.2682,0,U,43648,999,3576,0,-.98E-6,0
BEIDOU-3 G1,2018-085A,2024-01-20T15:46:34.025664,1.00273895,.0001781,1.8347,116.2038,328.0013,51.9789,0,U,43683,999,1925,0,-.275E-5,0
COSMOS 2529,2018-086A,2024-01-18T09:10:06.210912,2.13101989,.0006637,64.3051,222.3978,265.8809,94.0920,0,U,43687,999,4051,0,.99E-6,0
BEIDOU-3 M17,2018-093A,2024-01-19T18:35:47.410656,1.86228177,.0006214,54.2364,212.1512,294.4133,65.5509,0,U,43706,999,3514,0,.11E-5,0
BEIDOU-3 M18,2018-093B,2024-01-20T04:16:47.176320,1.86229711,.0006014,54.2371,212.1293,336.1720,23.8294,0,U,43707,999,3516,0,.11E-5,0
BEIDOU-3 IGSO-1,2019-023A,2023-12-25T20:32:05.404704,1.00248909,.0023834,57.3835,47.0551,204.1671,266.3544,0,U,44204,999,1727,0,-.224E-5,0
BEIDOU-2 G8,2019-027A,2024-01-20T15:19:39.726336,1.00267305,.0004263,1.5822,72.6631,182.7727,238.4321,0,U,44231,999,1727,0,-.246E-5,0
COSMOS 2534,2019-030A,2024-01-20T13:02:44.199168,2.13101950,.0009335,64.3777,222.2634,293.0417,59.4024,0,U,44299,999,3619,0,.112E-5,0
BEIDOU-3 IGSO-2,2019-035A,2024-01-19T07:12:42.425856,1.00287457,.0031529,55.1687,166.5840,200.9223,337.5273,0,U,44337,999,1684,0,-.94E-6,0
NAVSTAR 78 (USA 293),2019-056A,2024-01-20T09:22:13.825920,2.00568758,.0038759,55.8382,5.9716,190.7191,338.3809,0,U,44506,999,3244,0,-.9E-6,0
BEIDOU-3 M24,2019-061A,2024-01-19T17:05:14.834400,1.86231298,.0008641,54.4637,212.4105,12.7167,347.3346,0,U,44542,999,2941,0,.111E-5,0
BEIDOU-3 M23,2019-061B,2024-01-20T11:11:11.105664,1.86231647,.0005338,54.4622,212.3538,12.2103,45.5019,0,U,44543,999,2943,0,.11E-5,0
BEIDOU-3 IGSO-3,2019-073A,2024-01-20T03:35:14.226144,1.00295049,.0034741,56.3021,290.3028,182.2495,177.7816,0,U,44709,999,1562,0,-.201E-5,0
BEIDOU-3 M22,2019-078A,2024-01-20T02:16:02.675424,1.86231959,.0006712,54.6695,330.5365,9.3711,350.6356,0,U,44793,999,2827,0,-.11E-5,0
BEIDOU-3 M21,2019-078B,2024-01-19T03:37:07.521600,1.86232431,.0004806,54.6442,330.5485,358.8946,1.1006,0,U,44794,999,2826,0,-.106E-5,0
BEIDOU-3 M19,2019-090A,2024-01-20T14:39:04.264128,1.86231514,.0018509,55.8094,92.0191,275.4179,176.6051,0,U,44864,999,2786,0,-.71E-6,0
BEIDOU-3 M20,2019-090B,2024-01-20T08:12:16.593408,1.86231461,.0016061,55.8110,92.0612,287.4542,74.2469,0,U,44865,999,2785,0,-.71E-6,0
BEIDOU-3 G2,2020-017A,2024-01-20T11:26:43.206144,1.00271214,.0003251,2.1528,23.2512,256.9506,90.8432,0,U,45344,999,1444,0,-.138E-5,0
COSMOS 2545,2020-018A,2024-01-20T07:12:41.799456,2.13102500,.0010767,64.8022,343.1307,257.9875,101.8863,0,U,45358,999,2993,0,-.82E-6,0
BEIDOU-3 G3,2020-040A,2024-01-19T23:33:29.319840,1.00269136,.0009393,0.5935,16.0172,298.5201,268.2426,0,U,45807,999,1325,0,-.349E-5,0
NAVSTAR 79 (USA 304),2020-041A,2024-01-20T08:09:53.478720,2.00560304,.0040036,55.9982,63.2797,192.5122,241.2825,0,U,45854,999,2641,0,-.66E-6,0
COSMOS 2547,2020-075A,2024-01-20T11:43:59.179296,2.13102921,.000531,64.6059,221.8627,235.2002,124.8016,0,U,46805,999,2518,0,.112E-5,0
NAVSTAR 80 (USA 309),2020-078A,2024-01-20T00:44:42.636192,2.00561877,.0039207,54.2436,246.4688,193.2694,354.0738,0,U,46826,999,2387,0,.58E-6,0
NAVSTAR 81 (USA 319),2021-054A,2024-01-20T00:35:46.246848,2.00566184,.0014276,55.3592,7.7067,225.5953,142.2680,0,U,48859,999,1912,0,-.88E-6,0
QZS-1R,2021-096A,2024-01-20T12:42:42.708672,1.00244419,.0759363,35.6393,92.7991,271.8710,76.4616,0,U,49336,999,819,0,-.327E-5,0
GSAT0223 (GALILEO 27),2021-116A,2024-01-20T13:49:31.887264,1.70475649,.0003162,57.2934,5.3687,254.3238,282.7639,0,U,49809,999,1320,0,-.9E-6,0
