43623,BEIDOU-3 M14,2018,773.23,800.0,+,55.88,Active,1,MEO,PRC,China,Government/Military,Navigation (Global or Regional Positioning),Long March,1 43623U 18072B   24020.40787437 -.00000071  00000+0  00000+0 0  9991,2 43623  55.8768  91.8400 0004514 305.5526  54.4438  1.86231075 36281,1.86231075,0.0004514,MEO
43647,BEIDOU-3 M16,2018,773.23,800.0,+,54.82,Active,1,MEO,PRC,China,Government/Military,Navigation (Global or Regional Positioning),Long March,1 43647U 18078A   24020.57126402 -.00000112  00000+0  00000+0 0  9996,2 43647  54.8211 330.5698 0007872   4.4555 355.5448  1.86232163 35798,1.86232163,0.0007872,MEO
43648,BEIDOU-3 M15,2018,773.23,800.0,+,54.82,Active,1,MEO,PRC,China,Government/Military,Navigation (Global or Regional Positioning),Long March,1 43648U 18078B   24018.01563622 -.00000098  00000+0  00000+0 0  9995,2 43648  54.8187 330.6613 0004741   5.7358 354.2682  1.86231829 35767,1.86231829,0.0004741,MEO
43683,BEIDOU-3 G1,2018,1436.06,800.0,+,1.83,Active,1,GSO,PRC,China,Government/Military,Navigation (Global or Regional Positioning),Long March,1 43683U 18085A   24020.65733826 -.00000275  00000+0  00000+0 0  9997,2 43683   1.8347 116.2038 0001781 328.0013  51.9789  1.00273895 19255,1.00273895,0.0001781,GSO
43687,COSMOS 2529 [GLONASS-M],2018,675.73,1415.0,+,64.31,Active,1,MEO,Russia,Russia/USSR,Commercial/Military,Navigation (Global or Regional Positioning),Soyuz,1 43687U 18086A   24018.38201633  .00000099  00000+0  00000+0 0  9998,2 43687  64.3051 222.3978 0006637 265.8809  94.0920  2.13101989 40510,2.13101989,0.0006637,MEO
43706,BEIDOU-3 M17,2018,773.25,800.0,+,54.24,Active,1,MEO,PRC,China,Government/Military,Navigation (Global or Regional Positioning),Long March,1 43706U 18093A   24019.77485429  .00000110  00000+0  00000+0 0  9993,2 43706  54.2364 212.1512 0006214 294.4133  65.5509  1.86228177 35144,1.86228177,0.0006214,MEO
43707,BEIDOU-3 M18,2018,773.24,800.0,+,54.24,Active,1,MEO,PRC,China,Government/Military,Navigation (Global or Regional Positioning),Long March,1 43707U 18093B   24020.17832380  .00000110  00000+0  00000+0 0  9992,2 43707  54.2371 212.1293 0006014 336.1720  23.8294  1.86229711 35168,1.86229711,0.0006014,MEO
44204,BEIDOU-3 IGSO-1,2019,1436.42,800.0,+,57.38,Active,1,GSO,PRC,China,Government/Military,Navigation (Global or Regional Positioning),Long March,1 44204U 19023A   23359.85561811 -.00000224  00000+0  00000+0 0  9993,2 44204  57.3835  47.0551 0023834 204.1671 266.3544  1.00248909 17270,1.00248909,0.0023834,GSO
44231,BEIDOU-2 G8,2019,1436.16,800.0,+,1.58,Active,1,GSO,PRC,China,Government/Military,Navigation (Global or Regional Positioning),Long March,1 44231U 19027A   24020.63865424 -.00000246  00000+0  00000+0 0  9990,2 44231   1.5822  72.6631 0004263 182.7727 238.4321  1.00267305 17272,1.00267305,0.0004263,GSO
44299,COSMOS 2534 [GLONASS-M],2019,675.73,1415.0,+,64.38,Active,1,MEO,Russia,Russia/USSR,Commercial/Military,Navigation (Global or Regional Positioning),Soyuz,1 44299U 19030A   24020.54356712  .00000112  00000+0  00000+0 0  9994,2 44299  64.3777 222.2634 0009335 293.0417  59.4024  2.13101950 36196,2.1310195,0.0009335,MEO
44337,BEIDOU-3 IGSO-2,2019,1435.87,800.0,+,55.17,Active,1,GSO,PRC,China,Government/Military,Navigation (Global or Regional Positioning),Long March,1 44337U 19035A   24019.30049104 -.00000094  00000+0  00000+0 0  9998,2 44337  55.1687 166.5840 0031529 200.9223 337.5273  1.00287457 16846,1.00287457,0.0031529,GSO
44506,NAVSTAR 78 (USA 293),2019,717.96,2300.0,+,55.84,Active,1,MEO,USA,USA,Commercial/Military,Navigation (Global or Regional Positioning),Delta,1 44506U 19056A   24020.39043780 -.00000090  00000+0  00000+0 0  9990,2 44506  55.8382   5.9716 0038759 190.7191 338.3809  2.00568758 32448,2.00568758,0.0038759,MEO
44542,BEIDOU-3 M24,2019,773.23,800.0,+,54.46,Active,1,MEO,PRC,China,Government/Military,Navigation (Global or Regional Positioning),Long March,1 44542U 19061A   24019.71197725  .00000111  00000+0  00000+0 0  9992,2 44542  54.4637 212.4105 0008641  12.7167 347.3346  1.86231298 29414,1.86231298,0.0008641,MEO
44543,BEIDOU-3 M23,2019,773.23,800.0,+,54.46,Active,1,MEO,PRC,China,Government/Military,Navigation (Global or Regional Positioning),Long March,1 44543U 19061B   24020.46610076  .00000110  00000+0  00000+0 0  9995,2 44543  54.4622 212.3538 0005338  12.2103  45.5019  1.86231647 29437,1.86231647,0.0005338,MEO
44709,BEIDOU-3 IGSO-3,2019,1435.76,4200.0,+,56.31,Active,1,GSO,PRC,China,Government/Military,Navigation (Global or Regional Positioning),Long March,1 44709U 19073A   24020.14947021 -.00000201  00000+0  00000+0 0  9992,2 44709  56.3021 290.3028 0034741 182.2495 177.7816  1.00295049 15640,1.00295049,0.0034741,GSO
44793,BEIDOU-3 M22,2019,773.23,800.0,+,54.67,Active,1,MEO,PRC,China,Government/Military,Navigation (Global or Regional Positioning),Long March,1 44793U 19078A   24020.09447541 -.00000110  00000+0  00000+0 0  9995,2 44793  54.6695 330.5365 0006712   9.3711 350.6356  1.86231959 28277,1.86231959,0.0006712,MEO
44794,BEIDOU-3 M21,2019,773.23,800.0,+,54.64,Active,1,MEO,PRC,China,Government/Military,Navigation (Global or Regional Positioning),Long March,1 44794U 19078B   24019.15078150 -.00000106  00000+0  00000+0 0  9992,2 44794  54.6442 330.5485 0004806 358.8946   1.1006  1.86232431 28260,1.86232431,0.0004806,MEO
44864,BEIDOU-3 M19,2019,773.23,800.0,+,55.81,Active,1,MEO,PRC,China,Government/Military,Navigation (Global or Regional Positioning),Long March,1 44864U 19090A   24020.61046602 -.00000071  00000+0  00000+0 0  9995,2 44864  55.8094  92.0191 0018509 275.4179 176.6051  1.86231514 27870,1.86231514,0.0018509,MEO
44865,BEIDOU-3 M20,2019,773.23,800.0,+,55.81,Active,1,MEO,PRC,China,Government/Military,Navigation (Global or Regional Positioning),Long March,1 44865U 19090B   24020.34185872 -.00000071  00000+0  00000+0 0  9999,2 44865  55.8110  92.0612 0016061 287.4542  74.2469  1.86231461 27851,1.86231461,0.0016061,MEO
45344,BEIDOU-3 G2,2020,1436.11,2200.0,+,2.15,Active,1,GSO,PRC,China,Government/Military,Navigation (Global or Regional Positioning),Long March,1 45344U 20017A   24020.47688896 -.00000138  00000+0  00000+0 0  9995,2 45344   2.1528  23.2512 0003251 256.9506  90.8432  1.00271214 14446,1.00271214,0.0003251,GSO
45358,COSMOS 2545 [GLONASS-M],2020,675.73,1415.0,+,64.8,Active,1,MEO,Russia,Russia/USSR,Commercial/Military,Navigation (Global or Regional Positioning),Soyuz,1 45358U 20018A   24020.30048379 -.00000082  00000+0  00000+0 0  9997,2 45358  64.8022 343.1307 0010767 257.9875 101.8863  2.13102500 29938,2.131025,0.0010767,MEO
45807,BEIDOU-3 G3,2020,1436.13,800.0,+,0.59,Active,1,GSO,PRC,China,Government/Military,Navigation (Global or Regional Positioning),Long March,1 45807U 20040A   24019.98158935 -.00000349  00000+0  00000+0 0  9999,2 45807   0.5935  16.0172 0009393 298.5201 268.2426  1.00269136 13255,1.00269136,0.0009393,GEO
45854,NAVSTAR 79 (USA 304),2020,717.99,2300.0,+,56.0,Active,1,MEO,USA,USA,Commercial/Military,Navigation (Global or Regional Positioning),Falcon,1 45854U 20041A   24020.34020230 -.00000066  00000+0  00000+0 0  9996,2 45854  55.9982  63.2797 0040036 192.5122 241.2825  2.00560304 26412,2.00560304,0.0040036,MEO
46805,COSMOS 2547 [GLONASS-K],2020,675.73,1415.0,+,64.61,Active,1,MEO,Russia,Russia/USSR,Commercial/Military,Navigation (Global or Regional Positioning),Soyuz,1 46805U 20075A   24020.48887939  .00000112  00000+0  00000+0 0  9993,2 46805  64.6059 221.8627 0005310 235.2002 124.8016  2.13102921 25185,2.13102921,0.000531,MEO
46826,NAVSTAR 80 (USA 309),2020,717.98,2300.0,+,54.24,Active,1,MEO,USA,USA,Commercial/Military,Navigation (Global or Regional Positioning),Falcon,1 46826U 20078A   24020.03104903  .00000058  00000+0  00000+0 0  9992,2 46826  54.2436 246.4688 0039207 193.2694 354.0738  2.00561877 23871,2.00561877,0.0039207,MEO
48859,NAVSTAR 81 (USA 319),2021,717.97,2300.0,+,55.36,Active,1,MEO,USA,USA,Commercial/Military,Navigation (Global or Regional Positioning),Falcon,1 48859U 21054A   24020.02484082 -.00000088  00000+0  00000+0 0  9997,2 48859  55.3592   7.7067 0014276 225.5953 142.2680  2.00566184 19121,2.00566184,0.0014276,MEO
49336,QZS-1R,2021,1436.48,4100.0,+,35.64,Active,1,GSO,Japan,Japan,Government,Navigation (Global or Regional Positioning),H2A,1 49336U 21096A   24020.52966098 -.00000327  00000+0  00000+0 0  9997,2 49336  35.6393  92.7991 0759363 271.8710  76.4616  1.00244419  8195,1.00244419,0.0759363,GSO
49809,GSAT0223 (GALILEO 27),2021,844.7,733.0,+,57.29,Active,1,MEO,French Guiana,ESA,Commercial,Navigation (Global or Regional Positioning),Soyuz,1 49809U 21116A   24020.57606351 -.00000090  00000+0  00000+0 0  9990,2 49809  57.2934   5.3687 0003162 254.3238 282.7639  1.70475649 13206,1.70475649,0.0003162,MEO
